full_name,neo,pha,sats,H,G,diameter,extent,albedo,rot_per,GM,BV,UB,spec_B,spec_T,orbit_id,epoch,equinox,e,a,q,i,om,w,ma,ad,n,tp,per_y,moid,moid_jup,t_jup,class,producer,data_arc,first_obs,last_obs,n_obs_used,condition_code,rms
605070 (2016 BT39),Y,Y,0,19.67,,,,,,,,,,,JPL 18,2460000.5,J2000,0.5382,1.969,0.909,8.96,174.98,203.17,226.19,3.03,0.3568,2460375.56,2.76,0.0484,2.44,3.67,APO,Otto Matic,4006,13/02/08,01/02/19,90,0,0.69744
605489 (2016 NW22),Y,N,0,21.11,,,,,,,,,,,JPL 31,2460000.5,J2000,0.3991,2.107,1.266,5.28,202.2,111.57,51.53,2.95,0.3224,2459840.65,3.06,0.269,2.39,3.63,AMO,Otto Matic,4230,01/11/10,01/06/22,173,0,0.44041
605911 Cecily (2016 XD1),Y,N,0,19.25,,,,,,,,,,,JPL 64,2460000.5,J2000,0.295,1.782,1.256,14.5,289.64,205.27,185.73,2.31,0.4143,2460421.19,2.38,0.286,2.78,4,AMO,Otto Matic,3674,20/09/11,11/10/21,342,0,0.4679
606367 (2017 VB),Y,N,0,16.86,,,,,,,,,,,JPL 18,2460000.5,J2000,0.5023,1.582,0.787,25.56,346.85,270.49,33.04,2.38,0.4953,2459933.79,1.99,0.107,3.11,4.15,APO,Otto Matic,3696,10/09/11,23/10/21,82,2,0.53314
606438 (2017 XK61),Y,N,0,18.16,,,,,,,,,,,JPL 20,2460000.5,J2000,0.3689,1.605,1.013,27.11,32.21,304.82,300.15,2.2,0.4848,2460123.95,2.03,0.13,3.43,4.16,APO,Otto Matic,16688,29/05/76,05/02/22,79,0,0.5977
606441 (2017 YT5),Y,Y,0,19.09,,,,,,,,,,,JPL 47,2460000.5,J2000,0.4193,1.796,1.043,36.48,133.54,197.02,161.21,2.55,0.4095,2459606.79,2.41,0.0411,2.83,3.75,AMO,Otto Matic,3279,30/01/11,22/01/20,239,0,0.4766
606605 (2018 KV),Y,N,0,17.28,,,,,,,,,,,JPL 48,2460000.5,J2000,0.6823,2.609,0.829,29.05,192.34,167.58,11.83,4.39,0.2339,2459949.91,4.21,0.16,1.18,2.9,APO,Otto Matic,4139,25/01/11,26/05/22,276,0,0.49726
606702 (2018 TO2),Y,N,0,20.13,,,,,,,,,,,JPL 17,2460000.5,J2000,0.5953,1.101,0.445,43.27,202.67,353.82,139.34,1.76,0.8536,2459837.26,1.15,0.54,3.2,5.27,APO,Otto Matic,2963,23/09/11,03/11/19,79,1,0.4909
606900 (2019 JC47),Y,N,0,20.43,,,,,,,,,,,JPL 16,2460000.5,J2000,0.4267,2.151,1.233,6.43,70.75,213.19,60.42,3.07,0.3125,2459807.13,3.15,0.225,2.12,3.58,AMO,Otto Matic,8034,28/05/00,27/05/22,84,0,0.53793
606908 (2019 KB2),Y,N,0,18.29,,,,,,,,,,,JPL 17,2460000.5,J2000,0.5579,2.634,1.164,24.98,348.01,272.06,315.8,4.1,0.2306,2460192.22,4.27,0.439,2.22,3.05,AMO,Otto Matic,7490,15/09/02,19/03/23,145,0,0.44622
606939 (2019 SD3),Y,N,0,21.82,,,,,,,,,,,JPL 15,2460000.5,J2000,0.1997,1.562,1.25,19,191.17,137.57,287.45,1.87,0.5047,2460144.24,1.95,0.285,3.56,4.35,AMO,Otto Matic,3847,21/04/11,01/11/21,121,0,0.70996
608017 (2002 UZ30),Y,N,0,19.92,,,,,,,,,,,JPL 40,2460000.5,J2000,0.4595,1.272,0.687,27.57,199.75,33.51,193.49,1.86,0.6872,2460242.79,1.43,0.251,3.18,4.87,APO,Otto Matic,7305,29/10/02,29/10/22,131,0,0.58702
612012 (1983 LC),Y,Y,0,19.45,,,,,,,,,,,JPL 40,2460000.5,J2000,0.7151,2.603,0.741,1.56,159.69,184.9,129.92,4.46,0.2347,2459447.04,4.2,0.025,0.968,2.99,APO,Otto Matic,14028,13/06/83,08/11/21,167,0,0.44632
612013 (1991 TF3),Y,N,0,19.29,,,,,,,,,,,JPL 104,2460000.5,J2000,0.5697,2.233,0.961,14.88,6.08,304.07,165.53,3.5,0.2954,2459440.2,3.34,0.083,2.01,3.37,APO,Otto Matic,11014,02/10/91,27/11/21,547,0,0.37618
612027 (1995 FJ),Y,N,0,20.71,,,,,9.2,,,,,,JPL 35,2460000.5,J2000,0.2704,1.085,0.792,25.03,4.66,316.47,146.07,1.38,0.8719,2459832.96,1.13,0.15,4.04,5.59,APO,Otto Matic,9858,29/03/95,25/03/22,137,0,0.47489
612050 (1997 GL3),Y,Y,0,19.14,,,,,7.572,,,,V,,JPL 61,2460000.5,J2000,0.7842,2.27,0.49,6.68,194.35,262.56,210.69,4.05,0.2882,2460518.62,3.42,0.00369,1.29,3.11,APO,Otto Matic,8829,07/04/97,09/06/21,748,0,0.32271
612057 (1998 FJ74),Y,N,0,19,,,,,,,,,,,JPL 31,2460000.5,J2000,0.5365,2.392,1.109,28.12,197.02,282.87,291.56,3.67,0.2665,2460257.33,3.7,0.365,2.34,3.19,AMO,Otto Matic,7913,31/03/98,29/11/19,153,0,0.63432
612058 (1998 HN3),Y,N,0,18.32,,,,,,,,,,,JPL 36,2460000.5,J2000,0.6179,3.109,1.188,9.2,49.16,250.68,163.1,5.03,0.1798,2459093.38,5.48,0.235,0.755,2.87,AMO,Otto Matic,8095,19/04/98,17/06/20,122,0,0.56646
612061 (1998 MR24),Y,N,0,19.29,,,,,,,,,,,JPL 49,2460000.5,J2000,0.4456,1.958,1.085,6.07,245,54.9,354.45,2.83,0.3599,2460015.91,2.74,0.107,2.44,3.75,AMO,Otto Matic,12249,30/05/87,11/12/20,248,0,0.55748
612064 (1998 QQ52),Y,N,0,21.14,,,,,,,,,,,JPL 20,2460000.5,J2000,0.4549,2.108,1.149,4.83,205.7,106.7,8.08,3.07,0.322,2459975.41,3.06,0.16,2.27,3.6,AMO,Otto Matic,4349,18/08/98,15/07/10,67,0,0.55446
612089 (1999 FJ21),Y,N,0,20.25,,,,,0.370364,,,,,,JPL 64,2460000.5,J2000,0.2746,1.274,0.924,21.96,19.45,67.67,301.04,1.62,0.685,2460086.58,1.44,0.0589,3.71,4.96,APO,Otto Matic,8445,22/03/99,05/05/22,383,0,0.43824
612091 (1999 HV1),Y,N,0,17.59,,,,,,,,,,,JPL 41,2460000.5,J2000,0.5432,2.562,1.17,6.5,206.55,114.38,238.1,3.95,0.2403,2460507.72,4.1,0.192,1.5,3.2,AMO,Otto Matic,10749,04/09/91,07/02/21,152,0,0.46472
612094 (1999 NW2),Y,N,0,23.27,,,,,4.2,,,,,,JPL 42,2460000.5,J2000,0.1087,1.116,0.995,8.68,289.52,53.01,324.23,1.24,0.8358,2460043.3,1.18,0.0161,3.95,5.57,APO,Otto Matic,7206,13/07/99,05/04/19,171,0,0.32184
612098 (1999 RM45),Y,Y,0,19.77,,,,,3.0697,,,,,,JPL 75,2460000.5,J2000,0.6442,1.683,0.599,10.89,162.83,88.67,304.99,2.77,0.4512,2460122.4,2.18,0.0026,2.38,3.94,APO,Otto Matic,8094,14/09/99,11/11/21,870,0,0.30078
612103 (1999 SK10),Y,N,0,19.84,,,,,,,,,Sq,,JPL 124,2460000.5,J2000,0.4415,1.765,0.985,6.96,197.65,269.41,317.51,2.54,0.4205,2460101.54,2.34,0.113,2.66,3.99,APO,Otto Matic,7860,30/09/99,07/04/21,517,0,0.45642
612143 (2000 BO28),Y,Y,0,19.84,,,,,3.2392,,,,,,JPL 58,2460000.5,J2000,0.5998,1.699,0.68,6.34,319.78,303.38,94.84,2.72,0.445,2459787.39,2.21,0.0476,2.41,3.97,APO,Otto Matic,12308,15/02/89,28/10/22,208,0,0.57824
612152 (2000 DV110),Y,N,0,19.23,,,,,,,,,,,JPL 24,2460000.5,J2000,0.389,2.09,1.277,4.39,11.56,220.31,176.1,2.9,0.3262,2459460.69,3.02,0.272,2.1,3.65,AMO,Otto Matic,14170,20/04/82,04/02/21,68,1,0.77047
612162 (2000 LK),Y,N,0,18.44,,,,,,,,,,,JPL 41,2460000.5,J2000,0.9448,2.184,0.12,16.61,199.71,194.33,6.37,4.25,0.3055,2459979.63,3.23,0.105,1.23,2.79,APO,Otto Matic,8345,01/06/00,07/04/23,182,0,0.55861
612171 (2000 QT7),Y,N,0,20.27,,,,,,,,,,,JPL 29,2460000.5,J2000,0.4957,2.302,1.161,12.21,329,15.79,155.92,3.44,0.2822,2459447.88,3.49,0.157,2,3.39,AMO,Otto Matic,7740,24/08/00,02/11/21,271,0,0.48201
612197 (2000 WP19),Y,N,0,22.93,,,,,,,,,,,JPL 27,2460000.5,J2000,0.2883,0.8546,0.608,7.68,55.67,222.16,179.52,1.1,1.248,2459856.61,0.79,0.0032,3.99,6.86,ATE,Otto Matic,6974,21/11/00,26/12/19,80,0,0.46475
612199 (2000 WL63),Y,N,0,20.02,,,,,,,,,S,,JPL 54,2460000.5,J2000,0.2986,1.432,1.004,18.27,79.38,71.85,302.3,1.86,0.5752,2460100.8,1.71,0.161,3.26,4.58,APO,Otto Matic,7147,26/11/00,21/06/20,279,0,0.43295
612202 (2000 WO148),Y,N,0,20.53,,,,,,,,,,,JPL 57,2460000.5,J2000,0.3763,1.641,1.024,4.42,150.15,323.84,179.05,2.26,0.4687,2459618.48,2.1,0.0552,2.87,4.21,AMO,Otto Matic,7667,29/11/00,26/11/21,170,0,0.54385
612210 (2001 BP61),Y,N,0,20.41,,,,,,,,,,,JPL 34,2460000.5,J2000,0.3255,1.487,1.003,12.97,289.04,109.06,119.07,1.97,0.5437,2459781.49,1.81,0.139,3.51,4.49,APO,Otto Matic,7350,03/01/01,17/02/21,86,0,0.5152
612227 (2001 QC34),Y,Y,0,20.2,,,,,,,,,,,JPL 158,2460000.5,J2000,0.1876,1.129,0.917,6.24,271.46,215.48,199.35,1.34,0.8221,2460195.92,1.2,0.0291,3.71,5.52,APO,Otto Matic,6906,17/08/01,14/07/20,632,0,0.41128
612267 (2001 SG286),Y,Y,0,20.91,,,,,,,,,D,,JPL 47,2460000.5,J2000,0.3472,1.358,0.887,7.77,241.11,56.29,223.02,1.83,0.6226,2460220.53,1.58,0.00504,3.39,4.78,APO,Otto Matic,6988,27/09/01,14/11/20,214,0,0.52422
612324 (2002 AR129),Y,N,0,17.96,,,,,,,,,,,JPL 33,2460000.5,J2000,0.5802,2.838,1.191,19.53,4.2,157.78,129.22,4.48,0.2062,2459373.7,4.78,0.216,0.615,2.97,AMO,Otto Matic,6937,12/01/02,09/01/21,78,0,0.54054
612326 (2002 CD14),Y,Y,0,20.42,,,,,,,,,,,JPL 22,2460000.5,J2000,0.5791,1.778,0.748,2.89,127.67,141.22,260.09,2.81,0.4157,2460240.86,2.37,0.0284,2.31,3.88,APO,Otto Matic,7213,07/02/02,07/11/21,92,0,0.68989
612337 (2002 EY2),Y,Y,0,19.45,,,,,,,,,,,JPL 51,2460000.5,J2000,0.4865,1.726,0.886,21.73,343.4,51.07,166.73,2.56,0.4348,2459617.06,2.27,0.000262,3.1,3.95,APO,Otto Matic,6569,24/02/02,19/02/20,174,0,0.55692
612342 (2002 FC),Y,Y,0,19.16,,,,,,,,,,,JPL 65,2460000.5,J2000,0.6598,2.835,0.964,6.79,50.27,194.96,125.33,4.7,0.2065,2459393.67,4.77,0.0205,0.386,2.94,APO,Otto Matic,6973,16/03/02,18/04/21,236,0,0.50226
612343 (2002 FT6),Y,N,0,22.66,,,,,,,,,,,JPL 26,2460000.5,J2000,0.4626,0.9883,0.531,9.49,188.42,226.81,181.02,1.45,1.003,2460178.91,0.983,0.0407,3.94,6.03,ATE,Otto Matic,6303,23/03/02,25/06/19,72,1,0.74831
612346 (2002 GQ5),Y,N,0,20.85,,,,,,,,,,,JPL 25,2460000.5,J2000,0.4782,1.154,0.602,6.27,63.59,12.95,14.95,1.71,0.7949,2459981.69,1.24,0.098,3.58,5.33,APO,Otto Matic,7026,11/04/02,06/07/21,64,1,0.65075
612348 (2002 GZ8),Y,Y,0,18.73,,,,,25.381,,,,,,JPL 129,2460000.5,J2000,0.6397,2.821,1.016,5.32,309.76,161.47,162.77,4.63,0.208,2459217.81,4.74,0.0399,0.542,2.97,APO,Otto Matic,7151,13/10/01,12/05/21,783,0,0.43341
612356 (2002 JX8),Y,Y,0,20.43,,,,,,,,,,,JPL 23,2460000.5,J2000,0.3054,0.7699,0.535,4.31,68.58,338.1,88.75,1.01,1.459,2459939.67,0.676,0.0203,4.33,7.49,ATE,Otto Matic,6958,04/05/02,22/05/21,90,1,0.75589
612357 (2002 JC9),Y,N,0,18.6,,,,,,,,,,,JPL 31,2460000.5,J2000,0.8273,2.258,0.39,13.39,76.91,21.78,83.12,4.13,0.2904,2459714.28,3.39,0.172,1.16,3.02,APO,Otto Matic,6230,06/05/02,27/05/19,122,0,0.45824
612358 (2002 JE9),Y,Y,0,21.38,,,,,,,,,,,JPL 54,2460000.5,J2000,0.4165,1.066,0.622,8.77,199.83,255.91,24.31,1.51,0.8953,2459973.35,1.1,0.00699,3.7,5.69,APO,Otto Matic,7699,30/05/01,28/06/22,216,0,0.48206
612362 (2002 JQ100),Y,N,0,19.86,,,,,,,,,,,JPL 24,2460000.5,J2000,0.5189,1.181,0.568,29.6,47.31,40.11,160.32,1.79,0.7683,2459791.84,1.28,0.24,3.62,5.12,APO,Otto Matic,6583,12/05/02,20/05/20,82,0,0.53439
612363 (2002 KK3),Y,N,0,18.32,,,,,,,,,,,JPL 25,2460000.5,J2000,0.5673,2.447,1.059,29.19,65.93,208.97,135.9,3.84,0.2574,2459472.55,3.83,0.0896,1.51,3.11,AMO,Otto Matic,5432,18/05/02,01/04/17,72,0,0.72536
